{"type": "FeatureCollection", "features": [ {"type": "Feature", "properties": {"norad_id": 57401, "name": "TIANMU-1 09", "group": "weather", "lat": 4.240059526861676, "lon": 40.48396267380824, "alt_km": 481.9105244702796, "timestamp": "2025-12-17T23:38:06.507658+00:00", "meta": {"OBJECT_NAME": "TIANMU-1 09", "OBJECT_ID": "2023-101C", "EPOCH": "2025-12-17T15:45:31.817664", "MEAN_MOTION": 15.28156468, "ECCENTRICITY": 0.00066285, "INCLINATION": 97.2821, "RA_OF_ASC_NODE": 40.7064, "ARG_OF_PERICENTER": 70.4098, "MEAN_ANOMALY": 289.7857, "EPHEMERIS_TYPE": 0, "CLASSIFICATION_TYPE": "U", "NORAD_CAT_ID": 57401, "ELEMENT_SET_NO": 999, "REV_AT_EPOCH": 13390, "BSTAR": 0.00021854529, "MEAN_MOTION_DOT": 5.929e-05, "MEAN_MOTION_DDOT": 0}, "tle": {"line1": "1 57401U 23101C   25351.65661826  .00005929  00000+0  21855-3 0  9998", "line2": "2 57401  97.2821  40.7064 0006628  70.4098 289.7857 15.28156468133907"}}, "geometry": {"type": "Point", "coordinates": [40.48396267380824, 4.240059526861676]}}, {"type": "Feature", "properties": {"norad_id": 57402, "name": "TIANMU-1 10", "group": "weather", "lat": 3.527393059198786, "lon": -137.6653706492926, "alt_km": 485.7545949182413, "timestamp": "2025-12-17T23:38:06.507668+00:00", "meta": {"OBJECT_NAME": "TIANMU-1 10", "OBJECT_ID": "2023-101D", "EPOCH": "2025-12-17T15:00:32.615136", "MEAN_MOTION": 15.28147679, "ECCENTRICITY": 0.00083719, "INCLINATION": 97.2902, "RA_OF_ASC_NODE": 41.5308, "ARG_OF_PERICENTER": 69.4306, "MEAN_ANOMALY": 290.7831, "EPHEMERIS_TYPE": 0, "CLASSIFICATION_TYPE": "U", "NORAD_CAT_ID": 57402, "ELEMENT_SET_NO": 999, "REV_AT_EPOCH": 13389, "BSTAR": 0.00023574878, "MEAN_MOTION_DOT": 6.402e-05, "MEAN_MOTION_DDOT": 0}, "tle": {"line1": "1 57402U 23101D   25351.62537749  .00006402  00000+0  23575-3 0  9990", "line2": "2 57402  97.2902  41.5308 0008371  69.4306 290.7831 15.28147679133891"}}, "geometry": {"type": "Point", "coordinates": [-137.6653706492926, 3.527393059198786]}}, {"type": "Feature", "properties": {"norad_id": 57490, "name": "FENGYUN 3F", "group": "weather", "lat": -15.837124560604192, "lon": -122.29836374561394, "alt_km": 830.4118348557422, "timestamp": "2025-12-17T23:38:06.507679+00:00", "meta": {"OBJECT_NAME": "FENGYUN 3F", "OBJECT_ID": "2023-111A", "EPOCH": "2025-12-17T15:57:01.935072", "MEAN_MOTION": 14.1989482, "ECCENTRICITY": 7.156e-05, "INCLINATION": 98.7078, "RA_OF_ASC_NODE": 59.8784, "ARG_OF_PERICENTER": 109.6684, "MEAN_ANOMALY": 250.457, "EPHEMERIS_TYPE": 0, "CLASSIFICATION_TYPE": "U", "NORAD_CAT_ID": 57490, "ELEMENT_SET_NO": 999, "REV_AT_EPOCH": 12310, "BSTAR": 4.8251565e-05, "MEAN_MOTION_DOT": 5.9e-07, "MEAN_MOTION_DDOT": 0}, "tle": {"line1": "1 57490U 23111A   25351.66460573  .00000059  00000+0  48252-4 0  9994", "line2": "2 57490  98.7078  59.8784 0000715 109.6684 250.4570 14.19894820123100"}}, "geometry": {"type": "Point", "coordinates": [-122.29836374561394, -15.837124560604192]}}, {"type": "Feature", "properties": {"norad_id": 58584, "name": "ARKTIKA-M 2", "group": "weather", "lat": 60.950019387617786, "lon": -120.24999254204992, "alt_km": 37035.74173552212, "timestamp": "2025-12-17T23:38:06.507691+00:00", "meta": {"OBJECT_NAME": "ARKTIKA-M 2", "OBJECT_ID": "2023-198A", "EPOCH": "2025-12-15T07:41:54.278304", "MEAN_MOTION": 2.00603484, "ECCENTRICITY": 0.68650912, "INCLINATION": 63.2249, "RA_OF_ASC_NODE": 174.6089, "ARG_OF_PERICENTER": 268.096, "MEAN_ANOMALY": 18.8351, "EPHEMERIS_TYPE": 0, "CLASSIFICATION_TYPE": "U", "NORAD_CAT_ID": 58584, "ELEMENT_SET_NO": 999, "REV_AT_EPOCH": 1463, "BSTAR": 0, "MEAN_MOTION_DOT": 2.02e-06, "MEAN_MOTION_DDOT": 0}, "tle": {"line1": "1 58584U 23198A   25349.32076711  .00000202  00000+0  00000+0 0  9995", "line2": "2 58584  63.2249 174.6089 6865091 268.0960  18.8351  2.00603484 14636"}}, "geometry": {"type": "Point", "coordinates": [-120.24999254204992, 60.950019387617786]}}, {"type": "Feature", "properties": {"norad_id": 58645, "name": "TIANMU-1 11", "group": "weather", "lat": -69.05503117480313, "lon": 31.253355640207285, "alt_km": 493.8560142181941, "timestamp": "2025-12-17T23:38:06.507704+00:00", "meta": {"OBJECT_NAME": "TIANMU-1 11", "OBJECT_ID": "2023-205A", "EPOCH": "2025-12-17T14:29:31.534944", "MEAN_MOTION": 15.24659007, "ECCENTRICITY": 0.00076243, "INCLINATION": 97.3601, "RA_OF_ASC_NODE": 11.1421, "ARG_OF_PERICENTER": 289.8816, "MEAN_ANOMALY": 70.16, "EPHEMERIS_TYPE": 0, "CLASSIFICATION_TYPE": "U", "NORAD_CAT_ID": 58645, "ELEMENT_SET_NO": 999, "REV_AT_EPOCH": 10983, "BSTAR": 0.00021923331, "MEAN_MOTION_DOT": 5.348e-05, "MEAN_MOTION_DDOT": 0}, "tle": {"line1": "1 58645U 23205A   25351.60383721  .00005348  00000+0  21923-3 0  9995", "line2": "2 58645  97.3601  11.1421 0007624 289.8816  70.1600 15.24659007109831"}}, "geometry": {"type": "Point", "coordinates": [31.253355640207285, -69.05503117480313]}}, {"type": "Feature", "properties": {"norad_id": 58646, "name": "TIANMU-1 12", "group": "weather", "lat": 39.841340267790486, "lon": -162.48948484898838, "alt_km": 491.5938154318201, "timestamp": "2025-12-17T23:38:06.507714+00:00", "meta": {"OBJECT_NAME": "TIANMU-1 12", "OBJECT_ID": "2023-205B", "EPOCH": "2025-12-17T15:08:51.883584", "MEAN_MOTION": 15.24543435, "ECCENTRICITY": 0.00057772, "INCLINATION": 97.3588, "RA_OF_ASC_NODE": 10.9727, "ARG_OF_PERICENTER": 269.1658, "MEAN_ANOMALY": 90.8918, "EPHEMERIS_TYPE": 0, "CLASSIFICATION_TYPE": "U", "NORAD_CAT_ID": 58646, "ELEMENT_SET_NO": 999, "REV_AT_EPOCH": 10982, "BSTAR": 0.00021102772, "MEAN_MOTION_DOT": 5.125e-05, "MEAN_MOTION_DDOT": 0}, "tle": {"line1": "1 58646U 23205B   25351.63115606  .00005125  00000+0  21103-3 0  9997", "line2": "2 58646  97.3588  10.9727 0005777 269.1658  90.8918 15.24543435109821"}}, "geometry": {"type": "Point", "coordinates": [-162.48948484898838, 39.841340267790486]}}, {"type": "Feature", "properties": {"norad_id": 58647, "name": "TIANMU-1 13", "group": "weather", "lat": -43.051596170232266, "lon": 18.460347467101247, "alt_km": 497.4870371016232, "timestamp": "2025-12-17T23:38:06.507724+00:00", "meta": {"OBJECT_NAME": "TIANMU-1 13", "OBJECT_ID": "2023-205C", "EPOCH": "2025-12-17T14:22:27.723936", "MEAN_MOTION": 15.24586446, "ECCENTRICITY": 0.00061547, "INCLINATION": 97.3616, "RA_OF_ASC_NODE": 11.1441, "ARG_OF_PERICENTER": 245.0149, "MEAN_ANOMALY": 115.045, "EPHEMERIS_TYPE": 0, "CLASSIFICATION_TYPE": "U", "NORAD_CAT_ID": 58647, "ELEMENT_SET_NO": 999, "REV_AT_EPOCH": 10981, "BSTAR": 0.00022502037, "MEAN_MOTION_DOT": 5.477e-05, "MEAN_MOTION_DDOT": 0}, "tle": {"line1": "1 58647U 23205C   25351.59893199  .00005477  00000+0  22502-3 0  9997", "line2": "2 58647  97.3616  11.1441 0006154 245.0149 115.0450 15.24586446109817"}}, "geometry": {"type": "Point", "coordinates": [18.460347467101247, -43.051596170232266]}}, {"type": "Feature", "properties": {"norad_id": 58648, "name": "TIANMU-1 14", "group": "weather", "lat": 46.70606156910554, "lon": 2.9871957046476085, "alt_km": 492.40754752455086, "timestamp": "2025-12-17T23:38:06.507734+00:00", "meta": {"OBJECT_NAME": "TIANMU-1 14", "OBJECT_ID": "2023-205D", "EPOCH": "2025-12-17T13:58:37.973280", "MEAN_MOTION": 15.24569776, "ECCENTRICITY": 0.00069147, "INCLINATION": 97.3549, "RA_OF_ASC_NODE": 10.4721, "ARG_OF_PERICENTER": 251.3457, "MEAN_ANOMALY": 108.703, "EPHEMERIS_TYPE": 0, "CLASSIFICATION_TYPE": "U", "NORAD_CAT_ID": 58648, "ELEMENT_SET_NO": 999, "REV_AT_EPOCH": 10981, "BSTAR": 0.00021240842, "MEAN_MOTION_DOT": 5.164e-05, "MEAN_MOTION_DDOT": 0}, "tle": {"line1": "1 58648U 23205D   25351.58238395  .00005164  00000+0  21241-3 0  9990", "line2": "2 58648  97.3549  10.4721 0006914 251.3457 108.7030 15.24569776109812"}}, "geometry": {"type": "Point", "coordinates": [2.9871957046476085, 46.70606156910554]}}, {"type": "Feature", "properties": {"norad_id": 58660, "name": "TIANMU-1 19", "group": "weather", "lat": 5.368938352900037, "lon": 102.30804483771047, "alt_km": 486.4499744449431, "timestamp": "2025-12-17T23:38:06.507746+00:00", "meta": {"OBJECT_NAME": "TIANMU-1 19", "OBJECT_ID": "2023-208A", "EPOCH": "2025-12-17T14:10:51.535200", "MEAN_MOTION": 15.2793803, "ECCENTRICITY": 0.0004313, "INCLINATION": 97.4391, "RA_OF_ASC_NODE": 102.6185, "ARG_OF_PERICENTER": 231.1779, "MEAN_ANOMALY": 128.9075, "EPHEMERIS_TYPE": 0, "CLASSIFICATION_TYPE": "U", "NORAD_CAT_ID": 58660, "ELEMENT_SET_NO": 999, "REV_AT_EPOCH": 10956, "BSTAR": 0.00029220957, "MEAN_MOTION_DOT": 7.895e-05, "MEAN_MOTION_DDOT": 0}, "tle": {"line1": "1 58660U 23208A   25351.59087425  .00007895  00000+0  29221-3 0  9993", "line2": "2 58660  97.4391 102.6185 0004313 231.1779 128.9075 15.27938030109565"}}, "geometry": {"type": "Point", "coordinates": [102.30804483771047, 5.368938352900037]}}, {"type": "Feature", "properties": {"norad_id": 58661, "name": "TIANMU-1 20", "group": "weather", "lat": 75.77397891761845, "lon": -45.541435476552195, "alt_km": 474.70405151931664, "timestamp": "2025-12-17T23:38:06.507758+00:00", "meta": {"OBJECT_NAME": "TIANMU-1 20", "OBJECT_ID": "2023-208B", "EPOCH": "2025-12-17T12:11:45.240864", "MEAN_MOTION": 15.29127633, "ECCENTRICITY": 0.00064442, "INCLINATION": 97.4328, "RA_OF_ASC_NODE": 102.9883, "ARG_OF_PERICENTER": 245.5831, "MEAN_ANOMALY": 114.4737, "EPHEMERIS_TYPE": 0, "CLASSIFICATION_TYPE": "U", "NORAD_CAT_ID": 58661, "ELEMENT_SET_NO": 999, "REV_AT_EPOCH": 10962, "BSTAR": 0.00027684029, "MEAN_MOTION_DOT": 7.756e-05, "MEAN_MOTION_DDOT": 0}, "tle": {"line1": "1 58661U 23208B   25351.50816251  .00007756  00000+0  27684-3 0  9999", "line2": "2 58661  97.4328 102.9883 0006444 245.5831 114.4737 15.29127633109622"}}, "geometry": {"type": "Point", "coordinates": [-45.541435476552195, 75.77397891761845]}}]}